{"fetched_at":"2026-07-05T17:41:41.696Z","source":"https://celestrak.org/NORAD/elements/gp.php?NAME=SENTINEL&FORMAT=JSON","constellation":"sentinel-2","records":[{"OBJECT_NAME":"SENTINEL-2A","OBJECT_ID":"2015-028A","EPOCH":"2026-07-05T07:50:16.207008","CLASSIFICATION_TYPE":"U","MEAN_MOTION":14.30820915,"ECCENTRICITY":0.00012272,"INCLINATION":98.5678,"RA_OF_ASC_NODE":260.9208,"ARG_OF_PERICENTER":96.1871,"MEAN_ANOMALY":263.9452,"EPHEMERIS_TYPE":0,"NORAD_CAT_ID":40697,"ELEMENT_SET_NO":999,"REV_AT_EPOCH":57632,"BSTAR":0.000094894192,"MEAN_MOTION_DOT":0.00000205,"MEAN_MOTION_DDOT":0},{"OBJECT_NAME":"SENTINEL-2B","OBJECT_ID":"2017-013A","EPOCH":"2026-07-05T07:39:53.848800","CLASSIFICATION_TYPE":"U","MEAN_MOTION":14.30813081,"ECCENTRICITY":0.00012194,"INCLINATION":98.5686,"RA_OF_ASC_NODE":260.8379,"ARG_OF_PERICENTER":89.3506,"MEAN_ANOMALY":270.7817,"EPHEMERIS_TYPE":0,"NORAD_CAT_ID":42063,"ELEMENT_SET_NO":999,"REV_AT_EPOCH":48723,"BSTAR":0.000050607216,"MEAN_MOTION_DOT":8.9e-7,"MEAN_MOTION_DDOT":0},{"OBJECT_NAME":"SENTINEL-2C","OBJECT_ID":"2024-157A","EPOCH":"2026-07-05T05:08:52.437120","CLASSIFICATION_TYPE":"U","MEAN_MOTION":14.30813996,"ECCENTRICITY":0.00009359,"INCLINATION":98.5686,"RA_OF_ASC_NODE":260.7412,"ARG_OF_PERICENTER":94.1003,"MEAN_ANOMALY":266.0286,"EPHEMERIS_TYPE":0,"NORAD_CAT_ID":60989,"ELEMENT_SET_NO":999,"REV_AT_EPOCH":9556,"BSTAR":0.000085755342,"MEAN_MOTION_DOT":0.00000181,"MEAN_MOTION_DDOT":0}]}
