SENTINEL-2A             
1 40697U 15028A   26186.32657647  .00000205  00000+0  94894-4 0  9999
2 40697  98.5678 260.9208 0001227  96.1871 263.9452 14.30820915576329
SENTINEL-2B             
1 42063U 17013A   26186.31937325  .00000089  00000+0  50607-4 0  9991
2 42063  98.5686 260.8379 0001219  89.3506 270.7817 14.30813081487233
SENTINEL-2C             
1 60989U 24157A   26186.21449580  .00000181  00000+0  85755-4 0  9990
2 60989  98.5686 260.7412 0000935  94.1003 266.0286 14.30813996 95561
